C/2019 J2 (Palomar),e,105.1426,25.4741,98.7118,675.1826,0.0000562,0.99744191,0.0000,07/19.7082/2019,2000,g 13.0,4.0
# From MPC117071
C/2019 J3 (ATLAS),h,08/01.9138/2019,131.4134,270.5202,16.5674,1.000091,2.373943,2000,13.5,4.0
# From MPC117071
C/2019 JU6 (ATLAS),e,148.2982,21.7386,94.8870,331.9123,0.0001630,0.99383738,0.0000,05/31.8717/2019,2000,g 14.5,4.0
# From MPC119997
C/2019 K1 (ATLAS),e,87.1472,73.3765,265.7110,75499,0.0000000,0.99997334,0.0000,02/12.9766/2020,2000,g 10.0,4.0
# From MPC119997
C/2019 K4 (Ye),e,105.3027,180.1639,139.7739,1725,0.0000138,0.99868990,0.0000,06/16.3683/2019,2000,g 12.5,4.0
# From MPC119997
C/2019 K5 (Young),e,15.3146,177.1715,174.9493,155.8940,0.0005064,0.98694472,0.0000,06/22.8197/2019,2000,g 13.0,4.0
# From MPC117071
A/2019 K6,e,132.3752,42.9407,187.6226,1580,0.0000157,0.99751340,0.0000,05/20.2096/2020,2000,g 13.6,2.0
# From MPC118095
C/2019 K7 (Smith),h,06/16.9540/2020,103.5387,307.9285,27.3017,1.000487,4.474957,2000,6.2,4.0
# From MPC119997
C/2019 K8 (ATLAS),e,93.2231,291.0444,85.3694,2013,0.0000109,0.99841300,0.0000,07/21.3321/2019,2000,g 11.5,4.0
# From MPC118095
C/2019 L1 (PANSTARRS),e,9.9932,254.4094,49.9431,9.834567,0.0319574,0.70606198,12.4525,09/04.0/2020,2000,g 13.5,4.0
# From MPC115886
C/2019 L2 (NEOWISE),e,152.1796,12.5857,18.7425,24.86713,0.0079481,0.93486002,4.1421,09/04.0/2020,2000,g 16.0,4.0
# From MPC119997
C/2019 L3 (ATLAS),h,01/09.7659/2022,48.3663,290.7841,171.6461,1.000741,3.553734,2000,4.5,4.0
# From MPC118095
C/2019 LB7 (Kleyna),e,164.2826,3.7509,336.4332,35.33333,0.0046927,0.92964905,2.4714,09/04.0/2020,2000,g 17.0,4.0
# From MPC118843
P/2019 M2 (ATLAS),e,12.2821,307.5965,332.5550,3.026286,0.1872143,0.64842269,82.2498,09/04.0/2020,2000,g 21.2,4.0
# From MPC118095
C/2019 M3 (ATLAS),h,01/02.8916/2019,99.4508,154.8970,87.9402,1.001651,2.418706,2000,12.2,4.0
# From MPC119997
C/2019 N1 (ATLAS),e,82.4266,13.5730,193.4461,32171,0.0000002,0.99994702,0.0000,12/01.7891/2020,2000,g  7.5,4.0
# From MPEC 2020-P41
C/2019 NJ3 (Lemmon),h,10/22.2423/2020,99.4384,142.4547,246.8350,1.000828,4.361681,2000,9.0,4.0
# From MPEC 2020-AA5
A/2019 O2,e,93.2859,48.3268,129.6738,57.39162,0.0022669,0.83131066,357.8559,09/04.0/2020,2000,g  9.5,2.0
# From MPC118843
A/2019 O3,h,03/07.7502/2021,89.8122,300.3787,60.0404,1.001870,8.818619,2000,10.0,2.0
# From MPC117072
A/2019 O4,e,115.0855,354.9197,61.8211,32.84725,0.0052355,0.88904334,1.0837,09/04.0/2020,2000,g 15.5,2.0
# From MPEC 2020-AA5
A/2019 Q1,h,07/19.8862/2020,155.7199,42.3364,55.9435,1.000397,4.996687,2000,12.5,2.0
# From MPC117072
A/2019 Q2,e,159.0204,188.0395,176.2993,57.56657,0.0022566,0.97816860,0.0000,07/22.3452/2019,2000,g 18.0,2.0
# From MPC117072
C/2019 Q3 (PANSTARRS),h,08/21.2267/2018,65.5278,151.3241,152.6664,1.004381,7.252249,2000,8.5,4.0
# From MPC117072
P/2019 S2 (PANSTARRS),e,10.4731,93.1276,216.8134,4.735490,0.0956438,0.20681758,53.6285,09/04.0/2020,2000,g 13.5,4.0
# From MPC118096
P/2019 S3 (PANSTARRS),e,8.6931,150.1619,212.9743,3.414464,0.1562141,0.47085852,58.5551,09/04.0/2020,2000,g 18.3,4.0
# From MPEC 2020-AA5
A/2019 S4,e,92.0237,63.1651,71.3599,235.5738,0.0002726,0.98539020,0.0000,04/07.9601/2020,2000,g 14.5,2.0
# From MPC118843
A/2019 T1,e,120.8692,6.9511,91.0146,38.25518,0.0041655,0.88807587,359.4495,09/04.0/2020,2000,g 13.0,2.0
# From MPEC 2020-AA5
A/2019 T2,e,111.4711,155.6383,239.3896,2466,0.0000080,0.99892725,0.0000,04/22.2731/2021,2000,g 12.5,2.0
# From MPC119998
C/2019 T3 (ATLAS),e,121.8627,139.5193,112.2651,5546,0.0000024,0.99892774,0.0000,03/02.5529/2021,2000,g  6.8,4.0
# From MPC119998
C/2019 T4 (ATLAS),e,53.6169,199.9644,351.2152,1009,0.0000308,0.99579492,0.0000,06/09.3763/2022,2000,g  5.0,4.0
# From MPC119998
P/2019 T5 (ATLAS),e,33.4243,247.6912,189.6029,8.010778,0.0434702,0.80919535,17.3829,09/04.0/2020,2000,g 15.0,4.0
# From MPC119998
P/2019 T6 (PANSTARRS),e,18.6956,71.3076,328.9061,5.433783,0.0778127,0.62241438,23.4400,09/04.0/2020,2000,g 15.5,4.0
# From MPC118096
P/2019 U4 (PANSTARRS),e,11.6909,200.0279,180.9632,3.520387,0.1492170,0.47538794,52.4684,09/04.0/2020,2000,g 19.0,4.0
# From MPC118844
A/2019 U5,h,03/30.3285/2023,113.5254,2.6879,181.6066,1.000594,3.621052,2000,10.0,2.0
# From MPEC 2020-AA5
C/2019 U6,e,61.0010,235.7055,329.6612,432.6012,0.0001095,0.99788661,0.0000,06/18.8232/2020,2000,g 14.5,2.0
# From MPC119998
C/2019 V1 (Borisov),e,61.8628,83.2044,51.1950,2187,0.0000096,0.99858386,0.0000,07/16.5548/2020,2000,g 11.0,4.0
# From MPC119998
P/2019 V2 (Groeller),e,11.8041,189.1635,336.3579,7.514940,0.0478427,0.33245454,357.6594,09/04.0/2020,2000,g 10.0,4.0
# From MPC119998
P/2019 W1 (PANSTARRS),e,23.4601,35.4102,18.7146,4.550415,0.1015378,0.26618176,49.2671,09/04.0/2020,2000,g 12.9,4.0
# From MPC119998
P/2019 X1 (Pruyne),e,10.2446,43.7091,36.6094,6.177372,0.0641946,0.30342428,26.4581,09/04.0/2020,2000,g 10.4,4.0
# From MPC119999
C/2019 Y1 (ATLAS),e,73.2531,31.5186,57.9763,86.31573,0.0012290,0.99036584,0.0000,03/15.5959/2020,2000,g 13.7,4.0
# From MPC119999
P/2019 Y2 (Fuls),e,4.9019,81.0810,91.7377,3.528735,0.1486879,0.39612369,32.3158,09/04.0/2020,2000,g 13.2,4.0
# From MPEC 2020-L06
C/2019 Y4 (ATLAS),e,45.3832,120.5716,177.3040,516.0899,0.0000841,0.99950998,0.0000,05/31.0566/2020,2000,g 11.8,6.0
# From MPEC 2020-L06
C/2019 Y4-A (ATLAS),h,05/31.0419/2020,45.8249,120.9278,177.2475,1.001336,0.251025,2000,11.6,6.0
# From MPEC 2020-L06
C/2019 Y4-B (ATLAS),e,45.4595,120.6237,177.3808,1058,0.0000286,0.99976139,0.0000,05/31.0207/2020,2000,g 12.8,6.0
# From MPEC 2020-L06
C/2019 Y4-C (ATLAS),h,05/31.0002/2020,45.6072,120.6535,177.2809,1.002054,0.252074,2000,12.7,6.0
# From MPEC 2020-L06
C/2019 Y4-D (ATLAS),e,45.6486,121.0342,177.4197,67.14485,0.0017914,0.99625476,0.0000,05/31.1173/2020,2000,g 12.5,6.0
# From MPEC 2020-L06
C/2020 A2 (Iwamoto),e,120.7497,286.3791,68.2130,1215,0.0000233,0.99919531,0.0000,01/08.3335/2020,2000,g 13.5,4.0
# From MPEC 2020-L06
C/2020 A3 (ATLAS),h,07/29.5985/2019,146.7770,120.3770,271.1644,1.024783,5.839474,2000,8.0,4.0
# From MPEC 2020-L06
C/2020 B3 (Rankin),e,20.7045,185.8258,325.0826,1618,0.0000151,0.99793333,0.0000,10/19.8285/2019,2000,g 13.0,4.0
# From MPEC 2020-L06
C/2020 F2 (ATLAS),h,07/16.7092/2022,163.5745,250.2501,48.3725,1.002277,8.817043,2000,4.5,4.0
# From MPEC 2020-L06
C/2020 F3 (NEOWISE),e,128.9364,61.0125,37.2717,370.6897,0.0001381,0.99920488,0.0000,07/03.6829/2020,2000,g 12.5,3.2
# From MPEC 2020-L06
C/2020 F5 (MASTER),h,03/23.9605/2021,51.7005,350.6293,311.0148,1.002056,4.326879,2000,6.5,3.2
# From MPEC 2020-L06
C/2020 F6 (PANSTARRS),e,174.5814,207.8807,344.5970,375.8412,0.0001353,0.99065824,0.0000,04/11.5924/2020,2000,g 14.5,2.8
# From MPEC 2020-L06
A/2020 F7,e,93.9503,321.8861,227.9920,788.1675,0.0000445,0.99323557,0.0000,11/14.1370/2021,2000,g 12.0,2.0
# From MPEC 2020-KB7
C/2020 F8 (SWAN),e,110.7953,260.0085,68.2235,274.1153,0.0002172,0.99842987,0.0000,05/27.5661/2020,2000,g 10.0,4.0
# From MPEC 2020-L06
P/2020 G1 (Pimentel),e,18.4771,240.0932,207.6637,3.611749,0.1435912,0.85993577,24.4948,09/04.0/2020,2000,g 17.0,4.0
# From MPEC 2020-L06
C/2020 H2 (Pruyne),e,125.0442,277.6354,26.6950,185.1645,0.0003912,0.99549781,0.0000,04/27.5910/2020,2000,g 18.0,4.0
# From MPEC 2020-HM1
C/2020 H3 (Wierzchos),p,06/05.7162/2020,62.5292,30.4456,2.300288,270.6227,2000,13.5,4.0
# From MPEC 2020-L06
C/2020 H4 (Leonard),e,84.5148,307.7367,117.6125,48.15626,0.0029493,0.98074565,0.0000,08/29.5180/2020,2000,g 15.0,3.2
# From MPEC 2020-L06
C/2020 H5 (Robinson),e,70.2454,210.6032,325.0641,1089,0.0000274,0.99140045,0.0000,11/14.8975/2020,2000,g  5.0,4.0
# From MPEC 2020-L06
C/2020 H6 (ATLAS),h,09/30.9322/2021,79.9614,213.6999,20.3101,1.000874,4.704847,2000,8.0,3.2
# From MPEC 2020-KB7
C/2020 H7 (Lemmon),e,135.9235,323.5194,82.6780,1405,0.0000187,0.99685380,0.0000,06/02.9510/2020,2000,g 11.0,4.0
# From MPEC 2020-KB7
C/2020 H8 (PANSTARRS),p,06/06.7207/2020,99.7116,129.2192,4.678446,68.3225,2000,10.5,4.0
# From MPEC 2020-L06
A/2020 H9,e,137.8689,213.1191,312.8782,520.0752,0.0000831,0.99504105,0.0000,12/21.3282/2019,2000,g 18.0,2.0
# From MPEC 2020-L06
C/2020 J1 (SONEAR),e,142.2997,226.5760,341.7009,493.1649,0.0000900,0.99318655,0.0000,04/19.3113/2021,2000,g  8.5,3.2
# From MPEC 2020-L06
C/2020 K1 (PANSTARRS),h,05/08.1457/2023,89.6512,94.3705,213.9001,1.000795,3.075233,2000,5.5,4.0
# From MPEC 2020-KF5
C/2020 K2 (PANSTARRS),p,12/30.6730/2018,89.7510,34.2348,8.177098,285.5819,2000,6.5,4.0
# From MPEC 2020-KF9
C/2020 K3 (Leonard),p,06/01.0032/2020,129.0152,64.4924,1.583069,28.3546,2000,14.5,4.0
# From MPEC 2020-L06
C/2020 K4 (PANSTARRS),e,125.5627,264.0949,308.7681,23.91687,0.0084265,0.92671110,1.5526,09/04.0/2020,2000,g 16.5,4.0
# From MPEC 2020-L06
C/2020 K5 (PANSTARRS),h,06/05.6070/2021,67.1665,86.1597,249.6084,1.001387,1.535259,2000,11.0,4.0
# From MPEC 2020-L06
C/2020 K6 (Rankin),h,08/25.6305/2021,103.8089,291.5652,41.6205,1.001497,5.994935,2000,8.0,4.0
# From MPEC 2020-L09
C/2020 K7 (PANSTARRS),p,10/05.3027/2021,34.5520,60.8413,5.644571,287.4776,2000,8.0,4.0
# From MPEC 2020-P29
C/2020 P1 (NEOWISE),p,10/20.1731/2020,45.0233,8.9015,0.342498,53.5059,2000,14.0,3.2
# From MPEC 2020-Q01
C/2020 P3 (ATLAS),e,61.6632,18.8130,81.3618,50.78212,0.0027236,0.86676673,359.9975,04/10.0/2021,2000,g  6.0,4.0
# From  98, 1083
1P/Halley,e,162.2956,58.3577,111.2966,17.87118,0.0130459,0.96616694,164.9404,09/04.0/2020,2000,g  4.0,6.0
# From MPC118097
2P/Encke,e,11.7648,334.5503,186.5651,2.215393,0.2989013,0.84800662,20.9692,09/04.0/2020,2000,g 11.5,6.0
# From MPEC 2015-A10
4P/Faye,e,8.0078,193.0996,206.8705,3.828236,0.1315849,0.57759336,311.2795,09/04.0/2020,2000,g  8.0,6.0
# From MPEC 2015-S97
6P/d'Arrest,e,19.5121,138.9343,178.0947,3.497707,0.1506707,0.61260829,302.9285,09/04.0/2020,2000,g  9.0,4.0
# From MPEC 2015-E14
7P/Pons-Winnecke,e,22.3639,93.3787,172.5782,3.414791,0.1561917,0.63852243,318.5944,09/04.0/2020,2000,g  9.0,4.0
# From MPC 75715
8P/Tuttle,e,54.9116,270.2048,207.4903,5.703762,0.0723539,0.82008821,334.1131,09/04.0/2020,2000,g  9.0,4.0
# From MPEC 2019-JE2
